0 COSMOS 158
1  2801U 67045A   19329.79565669 -.00000014  00000-0  40398-5 0  9995
2  2801  74.0380 146.7394 0058072 222.6983 136.9651 14.36594305752941
0 SL-8 R/B
1  2802U 67045B   19328.37187435 -.00000020 +00000-0 +20919-5 0  9994
2  2802 074.0111 309.4085 0065865 150.9196 209.5655 14.43752505757443
0 SL-8 R/B
1  2802U 67045B   19329.41125851 -.00000023  00000-0  13414-5 0  9999
2  2802  74.0111 307.4731 0065826 148.7059 211.8043 14.43752557757599
0 THOR AGENA D R/B
1  2825U 67053B   19328.80580326 +.00000012 +00000-0 +46479-4 0  9990
2  2825 069.9703 175.0240 0005491 024.2186 053.3964 13.97141877757348
0 OPS 5712 (P/L 160)
1  2826U 67053A   19329.87612960  .00000533  00000-0  15694-3 0  9991
2  2826  69.9279 317.6532 0010087 245.2220 114.7864 14.48892715717805
0 GGSE 4
1  2828U 67053C   19329.55510276  .00000007  00000-0  43021-4 0  9997
2  2828  69.9695 165.6592 0006241  23.4413 336.6976 13.97440301673952
0 GGSE 4
1  2828U 67053C   19328.83932405 +.00000013 +00000-0 +47554-4 0  9991
2  2828 069.9695 167.1952 0006198 024.4797 335.6602 13.97440215673405
0 GGSE 5
1  2834U 67053D   19328.83411896 -.00000025 +00000-0 +20929-4 0  9995
2  2834 069.9730 222.2054 0004697 066.3018 293.8580 13.95814022671868
0 TIMATION 1
1  2847U 67053E   19329.76468789  .00000002  00000-0  37235-4 0  9997
2  2847  69.9658 349.7853 0009286 303.3464  56.6755 14.01750269678407
0 SECOR 9 (EGRS 9)
1  2861U 67065A   19328.35262298 +.00000002 +00000-0 +28611-3 0  9994
2  2861 090.1171 309.8830 0073695 215.6330 143.9571 08.36656426600584
0 OPS 9331 (IDSCS 16)
1  2862U 67066A   19328.68704972 -.00000100 +00000-0 +00000-0 0  9991
2  2862 003.0688 275.8045 0070501 017.0122 064.8791 01.09955716110844
0 OPS 9331 (IDSCS 16)
1  2862U 67066A   19329.77139387 -.00000113  00000-0  00000+0 0  9997
2  2862   3.0665 275.7786 0070530  17.0766 134.0810  1.09955961110930
0 OPS 9332 (IDSCS 17)
1  2863U 67066B   19328.24189779 -.00000060 +00000-0 +00000-0 0  9991
2  2863 003.0618 276.3407 0068838 014.1138 195.0263 01.09896559098374
0 OPS 9332 (IDSCS 17)
1  2863U 67066B   19329.18159088 -.00000062  00000-0  00000+0 0  9996
2  2863   3.0597 276.3184 0068866  14.1694 206.7713  1.09896603 98527
0 OPS 9334 (IDSCS 19)
1  2865U 67066D   19329.15941650 -.00000085  00000-0  00000+0 0  9994
2  2865   3.1987 277.5763 0059994 359.7345 144.9601  1.09624242104101
0 OPS 9334 (IDSCS 19)
1  2865U 67066D   19328.22889962 -.00000108 +00000-0 +00000-0 0  9995
2  2865 003.2007 277.5975 0059975 359.6799 137.7568 01.09624649103888
0 DODGE 1
1  2867U 67066F   19328.78039230 -.00000049 +00000-0 +00000-0 0  9997
2  2867 003.4392 279.5153 0053572 329.7192 251.4364 01.09167182107214
0 DODGE 1
1  2867U 67066F   19329.52395238 -.00000052  00000-0  00000+0 0  9996
2  2867   3.4376 279.4994 0053580 329.7753 183.6243  1.09167284107349
0 TITAN 3C TRANSTAGE R/B
1  2868U 67066G   19329.32526865 -.00000060  00000-0  00000+0 0  9996
2  2868   3.5476 281.2230 0077441 308.5563 320.1451  1.08906883102240
0 TITAN 3C TRANSTAGE R/B
1  2868U 67066G   19328.74767878 -.00000055 +00000-0 +00000-0 0  9997
2  2868 003.5488 281.2345 0077442 308.5282 093.7032 01.08906757102236
0 SURCAL 159
1  2872U 67053F   19328.83848819 -.00000014 +00000-0 +27617-4 0  9995
2  2872 069.9732 116.5175 0007477 335.8871 024.1885 13.98804491675028
0 SURCAL 159
1  2872U 67053F   19329.83960135 -.00000020  00000-0  23433-4 0  9991
2  2872  69.9733 114.3647 0007542 334.7433  25.3304 13.98804622675580
0 OPS 5712 (P/L 152)
1  2873U 67053G   19329.70848524 -.00000008  00000-0  31834-4 0  9995
2  2873  69.9722 155.2163 0006795   9.6705 120.0962 13.97828972674355
0 OPS 5712 (P/L 152)
1  2873U 67053G   19328.84556314 +.00000001 +00000-0 +38465-4 0  9991
2  2873 069.9722 157.0690 0006740 010.8291 097.6759 13.97828833673756
0 AURORA 1
1  2876U 67065B   19328.51819386 +.00000003 +00000-0 +87420-3 0  9998
2  2876 090.1147 309.2365 0073424 218.8667 140.6874 08.36563180189179
0 THOR BURNER 2 R/B
1  2877U 67065C   19328.35013135 +.00000000 +00000-0 -84726-3 0  9993
2  2877 090.1161 309.4851 0071745 217.0478 142.5391 08.36606474600529
0 THOR BURNER 2 R/B
1  2877U 67065C   19329.42624791 -.00000009  00000-0 -65366-2 0  9996
2  2877  90.1162 309.4889 0071751 216.0215 143.5772  8.36606584600881
0 SL-8 DEB
1  2934U 65020EM  19328.81725845 -.00000181 +00000-0 -42766-3 0  9994
2  2934 055.5916 253.8646 0356861 033.5401 000.9113 12.50227982402323
0 WESTFORD NEEDLES
1  2949U 63014AS  19329.30083280  .00006271  00000-0  32554+0 0  9990
2  2949  85.8865  60.6141 1980019 347.1626  51.1878  8.80500172101846
0 OPS 4947 (TRANSIT 17)
1  2965U 67092A   19328.73352694 +.00000034 +00000-0 +33431-4 0  9993
2  2965 089.2749 193.2160 0047907 169.0234 233.4334 13.52934378572110
0 OPS 4947 (TRANSIT 17)
1  2965U 67092A   19329.61800848  .00000038  00000-0  39748-4 0  9991
2  2965  89.2748 193.1511 0047989 166.4610 221.3519 13.52934434572650
0 SCOUT A R/B
1  2967U 67092B   19328.80753233 +.00000021 +00000-0 +14030-4 0  9997
2  2967 089.2744 191.8042 0045983 204.1506 285.4452 13.52006421571313
0 INTELSAT 2-F4
1  2969U 67094A   19328.31203558 -.00000231 +00000-0 +00000-0 0  9999
2  2969 001.9264 292.3746 0012709 256.8559 313.5693 01.00284039091289
0 INTELSAT 2-F4
1  2969U 67094A   19329.31698122 -.00000230  00000-0  00000+0 0  9993
2  2969   1.9241 292.3713 0012681 257.0113 316.2328  1.00283777 92763
0 DELTA 1 R/B(2) *
1  2971U 67094C   19328.37877412 +.00002355 +00000-0 +14590-2 0  9993
2  2971 028.4181 016.4585 6647986 192.7264 134.2257 03.07652316484802
0 DELTA 1 R/B(2) *
1  2971U 67094C   19329.67560734  .00002316  00000-0  13631-2 0  9995
2  2971  28.4199  15.7839 6647900 193.8275 130.5397  3.07659087484867
0 DELTA 1 DEB
1  2976U 67036C   19329.79473399 -.00000058  00000-0 -25503-4 0  9995
2  2976 102.1137 261.9885 0098024 222.2519 162.7342 12.82001106461182
0 DELTA 1 DEB
1  2976U 67036C   19328.78081722 -.00000056 +00000-0 -20288-4 0  9991
2  2976 102.1134 260.8983 0098036 224.2910 163.2895 12.82001108460614
0 THOR BURNER 2 R/B
1  2985U 67096B   19328.83984183 +.00000081 +00000-0 +26068-4 0  9994
2  2985 099.1176 056.1229 0089541 206.3522 153.3109 14.64358125742094
0 THOR BURNER 2 R/B
1  2985U 67096B   19329.72812632  .00000086  00000-0  26815-4 0  9997
2  2985  99.1176  57.1059 0089587 203.6279 156.0794 14.64358396763166
0 SCOUT X-4 DEB
1  2986U 64026E   19328.73150587 +.00000039 +00000-0 +18493-4 0  9993
2  2986 090.5369 056.6535 0047670 266.6107 092.9621 14.05441063837770
0 SCOUT A DEB
1  2989U 66005F   19328.79206103 +.00000171 +00000-0 +10774-3 0  9997
2  2989 089.7306 003.4134 0111891 213.0578 146.3573 13.97645414662013
0 SCOUT A DEB
1  2989U 66005F   19329.29322156  .00000200  00000-0  12697-3 0  9999
2  2989  89.7305   3.3986 0111940 211.4749 147.9700 13.97645634662487
0 SCOUT A DEB
1  2994U 67092C   19329.47399491  .00000191  00000-0  12740-3 0  9996
2  2994  89.4224 136.6887 0094631 125.5912 235.4128 13.94814095641080
0 ATS 3
1  3029U 67111A   19328.59153274 -.00000092 +00000-0 +00000-0 0  9991
2  3029 002.8452 289.7910 0015314 140.4561 100.9021 01.00271764190605
0 ATS 3
1  3029U 67111A   19329.44617781 -.00000091  00000-0  00000+0 0  9992
2  3029   2.8432 289.7819 0015307 140.3758  49.5058  1.00271753190606
0 ESSA 6 (TOS-D)
1  3035U 67114A   19329.81225719 -.00000031  00000-0  10458-3 0  9995
2  3035 102.2392 350.5502 0048676 359.1510  42.6430 12.54219706382736
0 ESSA 6 (TOS-D)
1  3035U 67114A   19328.77786647 -.00000034 +00000-0 +89079-4 0  9990
2  3035 102.2394 349.4830 0048681 001.1078 052.1683 12.54219657382177
0 DELTA 1 R/B
1  3036U 67114B   19328.81801400 -.00000034 +00000-0 +86197-4 0  9999
2  3036 102.2491 343.5677 0047995 012.5435 053.1375 12.54100858381945
0 DELTA 1 R/B
1  3036U 67114B   19329.79904719 -.00000051  00000-0 -20554-4 0  9999
2  3036 102.2495 344.5803 0047986  10.6998 162.2624 12.54100798382464
0 SL-8 DEB *
1  3045U 65070G   19329.27262844 -.00000770  00000-0 -41131-2 0  9997
2  3045  55.4352 272.5738 0294122 266.9094 256.6954 12.44182433391123
0 SL-8 DEB *
1  3045U 65070G   19328.83927606 -.00000752 +00000-0 -40033-2 0  9992
2  3045 055.4353 273.7513 0294156 266.2704 115.6947 12.44183229390653
0 COSMOS 192
1  3047U 67116A   19328.79554746 +.00000004 +00000-0 +75389-5 0  9996
2  3047 074.0126 247.6622 0009665 280.7640 079.2435 14.55620275749780
0 COSMOS 192
1  3047U 67116A   19329.75772998  .00000005  00000-0  78693-5 0  9996
2  3047  74.0126 245.8366 0009669 278.9449  81.0620 14.55620329750380
0 DELTA 1 DEB
1  3051U 67114C   19328.62961899 -.00000024 +00000-0 +10846-3 0  9990
2  3051 101.2215 017.4534 0088756 262.9217 250.9791 12.62196997396890
0 DELTA 1 DEB
1  3051U 67114C   19329.15507323 -.00000024  00000-0  10869-3 0  9992
2  3051 101.2212  17.9584 0088755 261.8579 118.6058 12.62196994397383
0 COSMOS 198
1  3081U 67127A   19328.76111704 -.00000114 +00000-0 -18539-4 0  9993
2  3081 065.1420 071.0178 0040772 246.6088 113.0687 13.93219571639713
0 EXPLORER 36 (GEOS 2)
1  3093U 68002A   19328.83584042 -.00000064 +00000-0 +37341-4 0  9991
2  3093 105.7973 301.6150 0318544 034.6695 021.6773 12.83532482429888
0 EXPLORER 36 (GEOS 2)
1  3093U 68002A   19329.54663877 -.00000078  00000-0 -89770-5 0  9994
2  3093 105.7974 302.6110 0318559  33.5142  66.0780 12.83532504430380
0 SCOUT A DEB
1  3122U 67092D   19329.38129486  .00000101  00000-0  18877-3 0  9993
2  3122  89.0614 300.5020 0188405  14.1761 141.7315 13.25026396516768
0 SCOUT A DEB
1  3122U 67092D   19328.39921369 +.00000099 +00000-0 +18530-3 0  9995
2  3122 089.0613 300.5911 0188472 016.8826 137.1207 13.25026206265547
